{
  "norad_id": 68520,
  "name": "STARLINK-37126",
  "history": [
    {
      "epoch": "2026-04-07T04:21:45.715968Z",
      "apogee_km": 295.57551052507824,
      "perigee_km": 293.354868516406,
      "latitude_deg": 5.150999461403294e-05,
      "longitude_deg": 105.66129893033538,
      "height_km": 294.38268623796705,
      "semi_major_axis_km": 6672.602189520742,
      "eccentricity": 0.0001664,
      "inclination_deg": 53.1612,
      "raan_deg": 6.5641,
      "arg_perigee_deg": 25.0676,
      "mean_anomaly_deg": 335.0433,
      "mean_motion_rev_day": 15.92795102
    },
    {
      "epoch": "2026-04-09T20:00:01.999008Z",
      "apogee_km": 324.47027199847616,
      "perigee_km": 323.7209623918734,
      "latitude_deg": 31.814085252077653,
      "longitude_deg": -117.41071077841983,
      "height_km": 326.01819659620423,
      "semi_major_axis_km": 6702.2326171951745,
      "eccentricity": 5.59e-05,
      "inclination_deg": 53.1607,
      "raan_deg": 353.1484,
      "arg_perigee_deg": 118.992,
      "mean_anomaly_deg": 282.0695,
      "mean_motion_rev_day": 15.82244215
    },
    {
      "epoch": "2026-04-10T09:28:46.672032Z",
      "apogee_km": 327.69963623138483,
      "perigee_km": 327.48237064407385,
      "latitude_deg": -2.1855702044370906e-05,
      "longitude_deg": 9.507671470407773,
      "height_km": 328.42506841954884,
      "semi_major_axis_km": 6705.728003437729,
      "eccentricity": 1.62e-05,
      "inclination_deg": 53.16,
      "raan_deg": 350.3316,
      "arg_perigee_deg": 321.8946,
      "mean_anomaly_deg": 38.2065,
      "mean_motion_rev_day": 15.8100725
    },
    {
      "epoch": "2026-04-11T20:00:01.000224Z",
      "apogee_km": 328.38232156201775,
      "perigee_km": 327.4702969519585,
      "latitude_deg": -53.3075531147244,
      "longitude_deg": 114.34359319205242,
      "height_km": 346.89236811734924,
      "semi_major_axis_km": 6706.063309256988,
      "eccentricity": 6.8e-05,
      "inclination_deg": 53.1595,
      "raan_deg": 343.1226,
      "arg_perigee_deg": 100.3184,
      "mean_anomaly_deg": 170.4451,
      "mean_motion_rev_day": 15.80888675
    },
    {
      "epoch": "2026-04-13T06:00:02.000160Z",
      "apogee_km": 328.292337560998,
      "perigee_km": 327.6203870060972,
      "latitude_deg": 42.858896467607934,
      "longitude_deg": 88.30124256340211,
      "height_km": 331.97487031120033,
      "semi_major_axis_km": 6706.093362283547,
      "eccentricity": 5.01e-05,
      "inclination_deg": 53.159,
      "raan_deg": 336.0205,
      "arg_perigee_deg": 116.3718,
      "mean_anomaly_deg": 301.5947,
      "mean_motion_rev_day": 15.80878048
    }
  ]
}